TRANSPORTER-16 OBJECT AV
1 68459U 26067AV  26108.63377330  .00005298  00000+0  27303-3 0  9993
2 68459  97.4496  67.9546 0004112 273.5923  86.4840 15.16795655  2900
COSMO                   
1 68460U 26067AW  26107.84188686  .00005296  00000+0  27268-3 0  9999
2 68460  97.4460  67.1701 0004124 283.9089  76.1685 15.16825796  2788
TRANSPORTER-16 OBJECT AX
1 68461U 26067AX  26107.83587568  .00005394  00000+0  27378-3 0  9992
2 68461  97.4514  67.1908 0001864 288.2945  71.8085 15.17322382  2785
TRANSPORTER-16 OBJECT AY
1 68462U 26067AY  26107.82913261  .00005545  00000+0  27690-3 0  9990
2 68462  97.4517  67.2005 0001243 183.4572 176.6654 15.17883455  2780
TRANSPORTER-16 OBJECT AZ
1 68463U 26067AZ  26107.83578162  .00000779  00000+0  42414-4 0  9995
2 68463  97.4493  67.1871 0001771 294.0660  66.0388 15.17293251  2782
TRANSPORTER-16 OBJECT BA
1 68464U 26067BA  26107.83589262  .00003463  00000+0  17723-3 0  9996
2 68464  97.4478  67.1810 0001524 313.8014  46.3094 15.17281095  2786
TRANSPORTER-16 OBJECT BB
1 68465U 26067BB  26107.83606405  .00002142  00000+0  11100-3 0  9992
2 68465  97.4483  67.1823 0001663 308.0006  52.1077 15.17246757  2780
TRANSPORTER-16 OBJECT BC
1 68466U 26067BC  26107.84255652  .00005100  00000+0  26316-3 0  9990
2 68466  97.4446  67.1649 0004308 300.9886  59.0924 15.16762425  2637
TRANSPORTER-16 OBJECT BD
1 68467U 26067BD  26107.84003634  .00011541  00000+0  58475-3 0  9999
2 68467  97.4378  67.1558 0004247 295.3984  64.6810 15.17124836  2780
ERMIS-1                 
1 68468U 26067BE  26108.63518419  .00007816  00000+0  40184-3 0  9998
2 68468  97.4522  67.9588 0004680 263.2357  96.8344 15.16725190  2904
TRANSPORTER-16 OBJECT BF
1 68469U 26067BF  26107.83540601  .00002135  00000+0  11051-3 0  9998
2 68469  97.4500  67.1880 0001587 293.4135  66.6931 15.17298933  2784
TRANSPORTER-16 OBJECT BG
1 68470U 26067BG  26108.63567096  .00006983  00000+0  35986-3 0  9994
2 68470  97.4442  67.9404 0004948 280.0395  80.0280 15.16679584  2900
TRANSPORTER-16 OBJECT BH
1 68471U 26067BH  26107.82253035  .00002370  00000+0  24547-3 0  9997
2 68471  97.7540  67.0038 0002126 242.1670 117.9333 14.90974072  2739
TRANSPORTER-16 OBJECT BJ
1 68472U 26067BJ  26107.82374216  .00001002  00000+0  10739-3 0  9992
2 68472  97.7587  67.0099 0003027 225.1638 134.9335 14.90852493  2737
TRANSPORTER-16 OBJECT BK
1 68473U 26067BK  26107.96075627  .00006696  00000+0  33335-3 0  9993
2 68473  97.4502  67.3256 0001007 177.6157 182.5082 15.17915480  2782
TRANSPORTER-16 OBJECT BL
1 68474U 26067BL  26107.87328843  .00001805  00000+0  18220-3 0  9998
2 68474  97.7508  67.0862 0003898  85.7542 274.4122 14.92297569  2733
